COSMOS 2361 [-]         
1 25590U 98076A   23250.59110250  .00000089  00000+0  79120-4 0  9995
2 25590  82.9316 235.6118 0032591  47.3890  90.3813 13.73072857237592
COSMOS 2378 [-]         
1 26818U 01023A   23251.12163826  .00000050  00000+0  36735-4 0  9995
2 26818  82.9233 252.4350 0032720 351.1649  77.5566 13.74010909115780
COSMOS 2389 [-]         
1 27436U 02026A   23250.80823226  .00000079  00000+0  66826-4 0  9992
2 27436  82.9532 198.9611 0045628 206.0304 188.2557 13.75022261 67848
COSMOS 2398 [-]         
1 27818U 03023A   23250.75420885  .00000064  00000+0  53938-4 0  9996
2 27818  82.9519 162.0666 0030008 249.2073 139.8167 13.72257027 14744
COSMOS 2407 [+]         
1 28380U 04028A   23251.12405521  .00000063  00000+0  49329-4 0  9997
2 28380  82.9575 105.0091 0038616 204.0125 279.5847 13.76166102960722
COSMOS 2414 [+]         
1 28521U 05002A   23250.79651199  .00000059  00000+0  36919-4 0  9999
2 28521  82.9460  90.0261 0039842 340.6814  19.2836 13.87718808943285
COSMOS 2429 [-]         
1 32052U 07038A   23250.46704732  .00000075  00000+0  62214-4 0  9995
2 32052  82.9782 232.9296 0038280 184.0636 176.0215 13.75009831802337
COSMOS 2454 [-]         
1 35635U 09039A   23250.48659066  .00000079  00000+0  51765-4 0  9992
2 35635  82.9526  75.7698 0017933 280.5386 112.7690 13.89747837716594
COSMOS 2463 [+]         
1 36519U 10017A   23250.86057635  .00000059  00000+0  47763-4 0  9999
2 36519  82.9564 274.1693 0037437  62.9233 350.7983 13.71518388669024
